[{"OBJECT_NAME":"STARLINK-4640","OBJECT_ID":"2022-107AE","EPOCH":"2026-03-09T21:13:34.281120","MEAN_MOTION":15.08824415,"ECCENTRICITY":0.00012121,"INCLINATION":53.2166,"RA_OF_ASC_NODE":253.2017,"ARG_OF_PERICENTER":96.1945,"MEAN_ANOMALY":263.9186,"EPHEMERIS_TYPE":0,"CLASSIFICATION_TYPE":"U","NORAD_CAT_ID":53728,"ELEMENT_SET_NO":999,"REV_AT_EPOCH":19458,"BSTAR":0.00011123805,"MEAN_MOTION_DOT":1.482e-5,"MEAN_MOTION_DDOT":0},{"OBJECT_NAME":"COSMOS 2058","OBJECT_ID":"1990-010A","EPOCH":"2026-03-09T23:30:01.891584","MEAN_MOTION":15.11324867,"ECCENTRICITY":0.00093159,"INCLINATION":82.4669,"RA_OF_ASC_NODE":47.1427,"ARG_OF_PERICENTER":343.3032,"MEAN_ANOMALY":16.789,"EPHEMERIS_TYPE":0,"CLASSIFICATION_TYPE":"U","NORAD_CAT_ID":20465,"ELEMENT_SET_NO":999,"REV_AT_EPOCH":94228,"BSTAR":0.00029943939,"MEAN_MOTION_DOT":5.077e-5,"MEAN_MOTION_DDOT":0}]
